ONEWEB-0158             
1 48054U 21025N   26176.88872706 -.00000218  00000+0 -63117-3 0  9992
2 48054  87.8968 318.4853 0001619 101.2762 258.8549 13.13472357254779
ONEWEB-0157             
1 48055U 21025P   26177.29502941  .00000240  00000+0  62273-3 0  9995
2 48055  87.8967 318.4097 0002204 103.1686 256.9689 13.13470500254767
ONEWEB-0162             
1 48056U 21025Q   26176.89029322 -.00000270  00000+0 -77461-3 0  9998
2 48056  87.8965 318.4909 0001962  94.0547 266.0807 13.13470462254684
ONEWEB-0155             
1 48057U 21025R   26176.89719777 -.00000115  00000+0 -34927-3 0  9997
2 48057  87.8964 318.4858 0001926 103.4142 256.7202 13.13470903254824
ONEWEB-0149             
1 48058U 21025S   26177.30010253  .00000367  00000+0  97112-3 0  9990
2 48058  87.8965 318.4093 0001991  92.9307 267.2050 13.13470460254684
ONEWEB-0148             
1 48059U 21025T   26176.88196066 -.00000288  00000+0 -82289-3 0  9993
2 48059  87.8961 318.4987 0002365  88.5997 271.5403 13.13470463254756
ONEWEB-0160             
1 48060U 21025U   26176.89888052 -.00000094  00000+0 -29303-3 0  9992
2 48060  87.8961 318.4915 0001162  86.5842 273.5421 13.13472077254700
ONEWEB-0163             
1 48061U 21025V   26176.88364486 -.00000503  00000+0 -14137-2 0  9995
2 48061  87.8969 318.4896 0002167 102.6479 257.4893 13.13468574254823
ONEWEB-0159             
1 48062U 21025W   26176.95136144 -.00000394  00000+0 -11146-2 0  9997
2 48062  87.8971 318.4698 0002019 103.0494 257.0861 13.13469281254754
ONEWEB-0164             
1 48063U 21025X   26176.93274738  .00000113  00000+0  27470-3 0  9993
2 48063  87.8971 318.4800 0001789  97.9913 262.1419 13.13469554254737
ONEWEB-0167             
1 48064U 21025Y   26176.96067864 -.00000297  00000+0 -84800-3 0  9992
2 48064  87.8960 318.4836 0002012 117.3236 242.8098 13.13468498254723
ONEWEB-0166             
1 48065U 21025Z   26177.13589672  .00000103  00000+0  24642-3 0  9991
2 48065  87.8970 318.4209 0001941  97.2602 262.8748 13.13472174254823
ONEWEB-0151             
1 48066U 21025AA  26177.13757434  .00000162  00000+0  40786-3 0  9997
2 48066  87.8962 318.4367 0001830 102.2014 257.9321 13.13471126254762
ONEWEB-0170             
1 48067U 21025AB  26177.14603839 -.00001176  00000+0 -32556-2 0  9991
2 48067  87.8961 318.4380 0001615 103.1143 257.0166 13.13469767254723
ONEWEB-0168             
1 48068U 21025AC  26176.90226090 -.00001934  00000+0 -53326-2 0  9995
2 48068  87.8969 318.4857 0001982  99.2484 260.8869 13.13478051254707
ONEWEB-0173             
1 48069U 21025AD  26176.89380895 -.00000168  00000+0 -49436-3 0  9994
2 48069  87.8962 318.4887 0002100 106.8044 253.3315 13.13471432254949
ONEWEB-0171             
1 48070U 21025AE  26176.93105387  .00000168  00000+0  42610-3 0  9997
2 48070  87.8959 318.4891 0001809 100.6706 259.4627 13.13470235254767
ONEWEB-0172             
1 48071U 21025AF  26177.13927334  .00000322  00000+0  84741-3 0  9998
2 48071  87.8965 318.4381 0001894 103.4599 256.6741 13.13470275255686
ONEWEB-0174             
1 48072U 21025AG  26176.89212000 -.00000160  00000+0 -47430-3 0  9994
2 48072  87.8966 318.4863 0002056  96.0276 264.1088 13.13471060254975
ONEWEB-0175             
1 48073U 21025AH  26176.92259245  .00000316  00000+0  83052-3 0  9992
2 48073  87.8970 318.4650 0001670 107.7181 252.4131 13.13471049254630
ONEWEB-0177             
1 48074U 21025AJ  26176.93443985  .00000080  00000+0  18466-3 0  9995
2 48074  87.8968 318.4810 0002111  98.3573 261.7796 13.13467635254824
ONEWEB-0178             
1 48075U 21025AK  26176.87702412 -.00000234  00000+0 -67560-3 0  9994
2 48075  87.8957 318.5041 0001887 106.3455 253.7882 13.13468491254860
ONEWEB-0108             
1 48076U 21025AL  26177.14096675  .00000228  00000+0  58978-3 0  9997
2 48076  87.8971 318.4315 0001835  91.2289 268.9050 13.13471270254820
ONEWEB-0169             
1 48077U 21025AM  26176.94459495 -.00000212  00000+0 -61659-3 0  9993
2 48077  87.8961 318.4777 0001986  96.6093 263.5262 13.13470119253456
ONEWEB-0176             
1 48210U 21031A   26177.23700348  .00000083  00000+0  19040-3 0  9999
2 48210  87.8969 287.8951 0002006 105.1336 255.0015 13.14503605249507
ONEWEB-0184             
1 48211U 21031B   26177.28616342  .00000254  00000+0  64975-3 0  9992
2 48211  87.8975 287.8872 0001937 125.1157 235.0154 13.14503686249480
ONEWEB-0179             
1 48212U 21031C   26177.29048038  .00000349  00000+0  10877-3 0  9992
2 48212  87.8995 284.7815 0219308 227.2369 131.0194 14.25530560250348
ONEWEB-0180             
1 48213U 21031D   26177.28934960  .00000183  00000+0  45779-3 0  9995
2 48213  87.8978 287.8828 0002301 107.4869 252.6512 13.14504702249411
ONEWEB-0218             
1 48214U 21031E   26177.23542546  .00000188  00000+0  47184-3 0  9993
2 48214  87.8983 287.8932 0002203 124.3328 235.8011 13.14502910249565
ONEWEB-0209             
1 48215U 21031F   26177.30043779  .00000255  00000+0  65460-3 0  9998
2 48215  87.8969 287.8960 0002210 101.3112 258.8266 13.14501993249573
